{
  "67209": {
    "noradId": "67209",
    "tle": [
      "1 67209C 25304T   26102.90534722  .00044711  00000+0  37462-2 0  1027",
      "2 67209  69.9999  88.3927 0003456 266.1596 134.2966 14.98314004    13"
    ]
  },
  "67210": {
    "noradId": "67210",
    "tle": [
      "1 67210C 25304U   26102.95395833  .00011302  00000+0  94691-3 0  1020",
      "2 67210  69.9996  88.0678 0002908 267.2935 215.3616 14.98336872    12"
    ]
  },
  "67211": {
    "noradId": "67211",
    "tle": [
      "1 67211C 25304V   26102.95534722  .00007305  00000+0  61202-3 0  1023",
      "2 67211  70.0004  88.0175 0003068 268.6757 266.4945 14.98335046    17"
    ]
  },
  "67212": {
    "noradId": "67212",
    "tle": [
      "1 67212C 25304W   26102.96159722  .00003612  00000+0  30252-3 0  1026",
      "2 67212  70.0000  87.9458 0003357 269.4012 344.4085 14.98347669    16"
    ]
  },
  "67213": {
    "noradId": "67213",
    "tle": [
      "1 67213C 25304X   26102.88243056  .00049455  00000+0  41437-2 0  1023",
      "2 67213  70.0001  88.0695 0003265 266.4640 348.0543 14.98312565    11"
    ]
  },
  "67214": {
    "noradId": "67214",
    "tle": [
      "1 67214C 25304Y   26102.93729167  .00021494  00000+0  18007-2 0  1022",
      "2 67214  70.0002  88.2840 0004617 261.6697 332.6610 14.98328454    16"
    ]
  },
  "67215": {
    "noradId": "67215",
    "tle": [
      "1 67215C 25304Z   26102.96437500  .00009216  00000+0  77205-3 0  1027",
      "2 67215  70.0004  88.1660 0003866 267.4232 157.8740 14.98336583    15"
    ]
  },
  "67216": {
    "noradId": "67216",
    "tle": [
      "1 67216C 25304AA  26102.88798611  .00051613  00000+0  43249-2 0  1020",
      "2 67216  69.9997  88.3038 0003304 266.7332 151.7692 14.98307903    18"
    ]
  },
  "67217": {
    "noradId": "67217",
    "tle": [
      "1 67217C 25304AB  26102.91923611  .00031405  00000+0  26314-2 0  1026",
      "2 67217  70.0000  88.1741 0004405 265.8533   6.1796 14.98317945    17"
    ]
  },
  "67218": {
    "noradId": "67218",
    "tle": [
      "1 67218C 25304AC  26102.89423611  .00042346  00000+0  35480-2 0  1029",
      "2 67218  70.0000  88.1892 0003651 267.8513 274.3911 14.98316125    14"
    ]
  },
  "67305": {
    "noradId": "67305",
    "tle": [
      "1 67305C 26002A   26102.88798611  .00004511  00000+0  16358-3 0  1022",
      "2 67305  43.0001 131.8388 0001340 275.3485  42.9078 15.27539381    10"
    ]
  },
  "67306": {
    "noradId": "67306",
    "tle": [
      "1 67306C 26002B   26102.94562500  .00029012  00000+0  10508-2 0  1029",
      "2 67306  43.0026 132.0949 0001528 272.3461 122.6008 15.27565671    13"
    ]
  },
  "67307": {
    "noradId": "67307",
    "tle": [
      "1 67307C 26002C   26102.91506944  .00017728  00000+0  64223-3 0  1022",
      "2 67307  43.0036 132.0767 0001480 268.2286  36.3274 15.27563417    11"
    ]
  },
  "67308": {
    "noradId": "67308",
    "tle": [
      "1 67308C 26002D   26102.90048611  .00008758  00000+0  31726-3 0  1029",
      "2 67308  43.0020 132.0564 0001311 263.2447   3.4707 15.27570685    18"
    ]
  },
  "67309": {
    "noradId": "67309",
    "tle": [
      "1 67309C 26002E   26102.87479167 -.00003387  00000+0 -12270-3 0  1028",
      "2 67309  43.0017 132.1519 0001445 265.7144 240.7563 15.27576167    12"
    ]
  },
  "67310": {
    "noradId": "67310",
    "tle": [
      "1 67310C 26002F   26102.90812500  .00009771  00000+0  35398-3 0  1023",
      "2 67310  43.0042 132.2550 0001458 271.9502 297.7658 15.27565965    10"
    ]
  },
  "67311": {
    "noradId": "67311",
    "tle": [
      "1 67311C 26002G   26102.90604167  .00015440  00000+0  55940-3 0  1027",
      "2 67311  43.0003 131.8395 0001143 265.2437 109.8805 15.27560480    18"
    ]
  },
  "67312": {
    "noradId": "67312",
    "tle": [
      "1 67312C 26002H   26102.88520833  .00003802  00000+0  13776-3 0  1022",
      "2 67312  43.0007 131.7677 0001583 256.4067  81.7223 15.27563243    16"
    ]
  },
  "67313": {
    "noradId": "67313",
    "tle": [
      "1 67313C 26002J   26102.88451389  .00003150  00000+0  11413-3 0  1024",
      "2 67313  43.0023 132.4904 0001602 272.1400 125.1299 15.27566875    14"
    ]
  },
  "67314": {
    "noradId": "67314",
    "tle": [
      "1 67314C 26002K   26102.91368056  .00017696  00000+0  64099-3 0  1025",
      "2 67314  43.0022 132.0305 0001472 264.7476  53.3891 15.27566519    15"
    ]
  },
  "67315": {
    "noradId": "67315",
    "tle": [
      "1 67315C 26002L   26102.96645833  .00033175  00000+0  12019-2 0  1026",
      "2 67315  42.9995 131.4620 0001311 263.9267  97.9896 15.27552457    12"
    ]
  },
  "67316": {
    "noradId": "67316",
    "tle": [
      "1 67316C 26002M   26102.95048611  .00028164  00000+0  10203-2 0  1022",
      "2 67316  42.9997 131.5006 0001411 264.4727  30.7314 15.27559098    10"
    ]
  },
  "67317": {
    "noradId": "67317",
    "tle": [
      "1 67317C 26002N   26102.93798611  .00026617  00000+0  96432-3 0  1023",
      "2 67317  43.0019 132.2041 0001629 271.4119  53.1902 15.27555585    18"
    ]
  },
  "67318": {
    "noradId": "67318",
    "tle": [
      "1 67318C 26002P   26102.89701389  .00004859  00000+0  17601-3 0  1020",
      "2 67318  43.0038 132.1929 0001362 270.9175 287.1573 15.27572765    16"
    ]
  },
  "67319": {
    "noradId": "67319",
    "tle": [
      "1 67319C 26002Q   26102.94145833  .00027379  00000+0  99198-3 0  1026",
      "2 67319  43.0043 131.9947 0001340 271.1771 150.3676 15.27555049    12"
    ]
  },
  "67320": {
    "noradId": "67320",
    "tle": [
      "1 67320C 26002R   26102.96159722  .00029362  00000+0  10638-2 0  1027",
      "2 67320  43.0013 132.1210 0001614 268.8717 164.5024 15.27554641    15"
    ]
  },
  "67321": {
    "noradId": "67321",
    "tle": [
      "1 67321C 26002S   26102.88590278  .00002903  00000+0  10514-3 0  1020",
      "2 67321  43.0036 132.3939 0001503 267.7180 172.5632 15.27580493    18"
    ]
  },
  "67322": {
    "noradId": "67322",
    "tle": [
      "1 67322C 26002T   26102.96368056  .00025484  00000+0  92292-3 0  1029",
      "2 67322  43.0028 132.0064 0001577 267.5667 219.7166 15.27569285    17"
    ]
  },
  "67323": {
    "noradId": "67323",
    "tle": [
      "1 67323C 26002U   26102.94284722  .00022779  00000+0  82515-3 0  1026",
      "2 67323  43.0016 131.8295 0001294 265.1598 227.7179 15.27563085    16"
    ]
  },
  "67324": {
    "noradId": "67324",
    "tle": [
      "1 67324C 26002V   26102.93034722  .00018757  00000+0  67945-3 0  1020",
      "2 67324  43.0003 131.7159 0001271 266.7905 235.0886 15.27565042    17"
    ]
  },
  "67325": {
    "noradId": "67325",
    "tle": [
      "1 67325C 26002W   26102.97270833  .00034884  00000+0  12637-2 0  1026",
      "2 67325  43.0007 131.5277 0001410 263.7331  90.1511 15.27556349    11"
    ]
  },
  "67326": {
    "noradId": "67326",
    "tle": [
      "1 67326C 26002X   26102.90118056  .00010381  00000+0  37606-3 0  1028",
      "2 67326  43.0009 131.6390 0001485 270.3437 169.9910 15.27568431    17"
    ]
  },
  "67327": {
    "noradId": "67327",
    "tle": [
      "1 67327C 26002Y   26102.91506944  .00013579  00000+0  49234-3 0  1029",
      "2 67327  43.0004 131.6460 0001303 247.8947 233.6430 15.27536777    19"
    ]
  },
  "67328": {
    "noradId": "67328",
    "tle": [
      "1 67328C 26002Z   26102.91854167  .00017875  00000+0  64745-3 0  1020",
      "2 67328  43.0041 132.1389 0001998 271.3837  16.9237 15.27566740    17"
    ]
  },
  "67329": {
    "noradId": "67329",
    "tle": [
      "1 67329C 26002AA  26102.93104167  .00023205  00000+0  84008-3 0  1029",
      "2 67329  43.0017 131.8618 0001552 273.2587 168.7383 15.27582726    11"
    ]
  },
  "67330": {
    "noradId": "67330",
    "tle": [
      "1 67330C 26002AB  26102.92548611  .00020061  00000+0  72668-3 0  1022",
      "2 67330  43.0033 132.1847 0001873 267.3737  23.7674 15.27564795    15"
    ]
  },
  "67331": {
    "noradId": "67331",
    "tle": [
      "1 67331C 26002AC  26102.96993056  .00031655  00000+0  11466-2 0  1023",
      "2 67331  43.0016 131.6904 0001378 263.2219  11.6932 15.27559801    10"
    ]
  },
  "67332": {
    "noradId": "67332",
    "tle": [
      "1 67332C 26002AD  26102.95951389  .00029040  00000+0  10528-2 0  1029",
      "2 67332  43.0017 132.0953 0001298 258.6598 177.4380 15.27534560    13"
    ]
  },
  "67333": {
    "noradId": "67333",
    "tle": [
      "1 67333C 26002AE  26102.96229167  .00026183  00000+0  94865-3 0  1025",
      "2 67333  43.0025 131.7596 0001516 260.3103 318.4114 15.27555203    16"
    ]
  },
  "67334": {
    "noradId": "67334",
    "tle": [
      "1 67334C 26003A   26102.93937500 -.00030636  00000+0 -11096-2 0  1025",
      "2 67334  43.0025  33.6894 0001403 262.9012  16.3691 15.27594622    12"
    ]
  },
  "67335": {
    "noradId": "67335",
    "tle": [
      "1 67335C 26003B   26102.91784722 -.00032343  00000+0 -11711-2 0  1021",
      "2 67335  43.0046  33.5240 0001677 266.6083  14.3946 15.27603850    17"
    ]
  },
  "67336": {
    "noradId": "67336",
    "tle": [
      "1 67336C 26003C   26102.90326389 -.00030349  00000+0 -10974-2 0  1026",
      "2 67336  43.0013  33.9946 0001495 262.6781 135.2984 15.27648022    13"
    ]
  },
  "67337": {
    "noradId": "67337",
    "tle": [
      "1 67337C 26003D   26102.94909722 -.00037466  00000+0 -13557-2 0  1026",
      "2 67337  43.0036  33.9808 0001038 251.9600 299.2762 15.27628749    19"
    ]
  },
  "67338": {
    "noradId": "67338",
    "tle": [
      "1 67338C 26003E   26102.96715278 -.00028251  00000+0 -10222-2 0  1028",
      "2 67338  43.0034  33.7760 0001167 266.0582  67.0778 15.27627221    14"
    ]
  },
  "67339": {
    "noradId": "67339",
    "tle": [
      "1 67339C 26003F   26102.96784722 -.00047525  00000+0 -17213-2 0  1021",
      "2 67339  43.0020  33.5777 0001146 266.5422 148.2394 15.27603800    14"
    ]
  }
}